IRIDIUM 155             
1 43573U 18061E   19339.51613937  .00000085  00000-0  23159-4 0  9995
2 43573  86.3947 333.6970 0001693 104.2406 255.8978 14.34217465 71423
IRIDIUM 154             
1 43574U 18061F   19339.49713108  .00000094  00000-0  26601-4 0  9999
2 43574  86.3951 333.7257 0002282  82.4552 277.6903 14.34218613 71462
IRIDIUM 163             
1 43575U 18061G   19339.54785621  .00000093  00000-0  26164-4 0  9998
2 43575  86.3948 333.6920 0002841  94.2458 265.9062 14.34217357 71440
IRIDIUM 156             
1 43576U 18061H   19339.52248353  .00000094  00000-0  26658-4 0  9992
2 43576  86.3948 333.7071 0002313 100.3508 259.7949 14.34219026 71426
IRIDIUM 164             
1 43577U 18061J   19339.50346268  .00000094  00000-0  26437-4 0  9990
2 43577  86.3949 333.7193 0002353  86.0712 274.0753 14.34218668 71473
IRIDIUM 159             
1 43578U 18061K   19339.54151067  .00000089  00000-0  24657-4 0  9992
2 43578  86.3948 333.6902 0002253  85.7601 274.3853 14.34216684 71449
IRIDIUM 180             
1 43922U 19002A   19339.54100719  .00000070  00000-0  18052-4 0  9991
2 43922  86.3976 270.4895 0003209  68.7463 291.4075 14.34219800 47094
IRIDIUM 176             
1 43923U 19002B   19339.56044084  .00000130  00000-0  16765-4 0  9992
2 43923  86.6112 270.4999 0002525  86.8106 273.3400 14.72250177 48254
IRIDIUM 168             
1 43924U 19002C   19339.60442895  .00000072  00000-0  18792-4 0  9997
2 43924  86.3978 270.4728 0002328  75.6235 284.5219 14.34219521 47046
IRIDIUM 173             
1 43925U 19002D   19339.52198669  .00000066  00000-0  16680-4 0  9993
2 43925  86.3975 270.4931 0002251  79.7225 280.4225 14.34217231 47025
IRIDIUM 169             
1 43926U 19002E   19339.41922514  .00000075  00000-0  17922-4 0  9996
2 43926  86.4207 302.1334 0003247 276.6686  83.4143 14.38577624 47221
IRIDIUM 172             
1 43927U 19002F   19339.51563694  .00000076  00000-0  20013-4 0  9994
2 43927  86.3976 270.4961 0002413  77.1035 283.0430 14.34219400 47029
IRIDIUM 175             
1 43928U 19002G   19339.55426192  .00000126  00000-0  16102-4 0  9990
2 43928  86.6095 270.4328 0001720 107.8268 252.3137 14.72251455 48247
IRIDIUM 171             
1 43929U 19002H   19339.56637138  .00000055  00000-0  12650-4 0  9991
2 43929  86.3985 270.5162 0002254  76.0870 284.0576 14.34215897 47021
IRIDIUM 170             
1 43930U 19002J   19339.56668200  .00000121  00000-0  15298-4 0  9992
2 43930  86.6111 270.5048 0002407  95.1012 265.0480 14.72251164 48269
IRIDIUM 167             
1 43931U 19002K   19339.56003928  .00000073  00000-0  18908-4 0  9990
2 43931  86.3976 270.4790 0002951  68.1928 291.9581 14.34216877 47022
